IDEFIX & ARIANE 42P R/B 
1 27422U 02021B   25362.80544009  .00000424  00000+0  17789-3 0  9994
2 27422  98.5805 297.2893 0012633  40.1507 320.0607 14.30962701233881
AQUA                    
1 27424U 02022A   25362.84242935  .00001419  00000+0  29424-3 0  9998
2 27424  98.4059 323.9850 0001879  97.4017 318.4487 14.61770338258380
CZ-4B R/B               
1 27432U 02024C   25362.78229937  .00000068  00000+0  57899-4 0  9996
2 27432  98.8977  51.4964 0049511 223.5677 244.8964 14.14531248219214
MIDORI II (ADEOS-II)    
1 27597U 02056A   25362.81734100  .00000442  00000+0  19172-3 0  9997
2 27597  98.7658 315.8598 0001005 141.9789 218.1464 14.29217740200172
H-2A R/B                
1 27601U 02056E   25362.87066265  .00000552  00000+0  20824-3 0  9997
2 27601  98.3088 320.9871 0070677  13.6204  40.0516 14.33691358203966
CZ-4B R/B               
1 28059U 03049C   25362.82596985  .00000590  00000+0  14677-3 0  9991
2 28059  98.6801 349.9985 0049380  87.9863 272.6987 14.54925767176296
CZ-2C R/B               
1 28222U 04012C   25362.75141113  .00050298  00000+0  69700-3 0  9992
2 28222  97.7397  56.7072 0016697 208.5130 151.5212 15.56765530193211
SL-16 R/B               
1 28353U 04021B   25362.81491222  .00000315  00000+0  18888-3 0  9999
2 28353  71.0005  21.2298 0004414 172.6220 187.4968 14.14581930112815
CZ-4B R/B               
1 28415U 04035C   25362.80755297  .00010519  00000+0  38608-3 0  9996
2 28415  97.3600  32.9385 0032023 217.7902 142.1089 15.27644510169089
CZ-2C R/B               
1 28480U 04046B   25362.73577091  .00000380  00000+0  15644-3 0  9996
2 28480  98.1997 277.1204 0139676   5.2134 355.0464 14.26951217 98380
ARIANE 5 R/B            
1 28499U 04049H   25362.68893152  .00001759  00000+0  20062-3 0  9993
2 28499  98.2532 163.5434 0083659 220.6187 138.8766 14.85056590135254
CZ-2D R/B               
1 28738U 05024B   25362.75929076  .00040793  00000+0  62639-3 0  9993
2 28738  97.3634  10.6363 0003186 293.0520  67.0397 15.54167228128745
