CCSDS_OMM_VERS = 2.0
CREATION_DATE  = 
ORIGINATOR     = 

OBJECT_NAME    = IDEFIX & ARIANE 42P R/B
OBJECT_ID      = 2002-021B
CENTER_NAME    = EARTH
REF_FRAME      = TEME
TIME_SYSTEM    = UTC
MEAN_ELEMENT_THEORY = SGP/SGP4

EPOCH          = 2025-12-28T19:19:50.023776
MEAN_MOTION    = 14.30962701
ECCENTRICITY   = .0012633
INCLINATION    = 98.5805
RA_OF_ASC_NODE = 297.2893
ARG_OF_PERICENTER = 40.1507
MEAN_ANOMALY   = 320.0607

EPHEMERIS_TYPE = 0
CLASSIFICATION_TYPE = U
NORAD_CAT_ID   = 27422
ELEMENT_SET_NO = 999
REV_AT_EPOCH   = 23388
BSTAR          = .17789E-3
MEAN_MOTION_DOT = .424E-5
MEAN_MOTION_DDOT = 0

CCSDS_OMM_VERS = 2.0
CREATION_DATE  = 
ORIGINATOR     = 

OBJECT_NAME    = AQUA
OBJECT_ID      = 2002-022A
CENTER_NAME    = EARTH
REF_FRAME      = TEME
TIME_SYSTEM    = UTC
MEAN_ELEMENT_THEORY = SGP/SGP4

EPOCH          = 2025-12-28T20:13:05.895840
MEAN_MOTION    = 14.61770338
ECCENTRICITY   = .0001879
INCLINATION    = 98.4059
RA_OF_ASC_NODE = 323.9850
ARG_OF_PERICENTER = 97.4017
MEAN_ANOMALY   = 318.4487

EPHEMERIS_TYPE = 0
CLASSIFICATION_TYPE = U
NORAD_CAT_ID   = 27424
ELEMENT_SET_NO = 999
REV_AT_EPOCH   = 25838
BSTAR          = .29424E-3
MEAN_MOTION_DOT = .1419E-4
MEAN_MOTION_DDOT = 0

CCSDS_OMM_VERS = 2.0
CREATION_DATE  = 
ORIGINATOR     = 

OBJECT_NAME    = CZ-4B R/B
OBJECT_ID      = 2002-024C
CENTER_NAME    = EARTH
REF_FRAME      = TEME
TIME_SYSTEM    = UTC
MEAN_ELEMENT_THEORY = SGP/SGP4

EPOCH          = 2025-12-28T18:46:30.665568
MEAN_MOTION    = 14.14531248
ECCENTRICITY   = .0049511
INCLINATION    = 98.8977
RA_OF_ASC_NODE = 51.4964
ARG_OF_PERICENTER = 223.5677
MEAN_ANOMALY   = 244.8964

EPHEMERIS_TYPE = 0
CLASSIFICATION_TYPE = U
NORAD_CAT_ID   = 27432
ELEMENT_SET_NO = 999
REV_AT_EPOCH   = 21921
BSTAR          = .57899E-4
MEAN_MOTION_DOT = .68E-6
MEAN_MOTION_DDOT = 0

CCSDS_OMM_VERS = 2.0
CREATION_DATE  = 
ORIGINATOR     = 

OBJECT_NAME    = MIDORI II (ADEOS-II)
OBJECT_ID      = 2002-056A
CENTER_NAME    = EARTH
REF_FRAME      = TEME
TIME_SYSTEM    = UTC
MEAN_ELEMENT_THEORY = SGP/SGP4

EPOCH          = 2025-12-28T19:36:58.262400
MEAN_MOTION    = 14.29217740
ECCENTRICITY   = .0001005
INCLINATION    = 98.7658
RA_OF_ASC_NODE = 315.8598
ARG_OF_PERICENTER = 141.9789
MEAN_ANOMALY   = 218.1464

EPHEMERIS_TYPE = 0
CLASSIFICATION_TYPE = U
NORAD_CAT_ID   = 27597
ELEMENT_SET_NO = 999
REV_AT_EPOCH   = 20017
BSTAR          = .19172E-3
MEAN_MOTION_DOT = .442E-5
MEAN_MOTION_DDOT = 0

CCSDS_OMM_VERS = 2.0
CREATION_DATE  = 
ORIGINATOR     = 

OBJECT_NAME    = H-2A R/B
OBJECT_ID      = 2002-056E
CENTER_NAME    = EARTH
REF_FRAME      = TEME
TIME_SYSTEM    = UTC
MEAN_ELEMENT_THEORY = SGP/SGP4

EPOCH          = 2025-12-28T20:53:45.252960
MEAN_MOTION    = 14.33691358
ECCENTRICITY   = .0070677
INCLINATION    = 98.3088
RA_OF_ASC_NODE = 320.9871
ARG_OF_PERICENTER = 13.6204
MEAN_ANOMALY   = 40.0516

EPHEMERIS_TYPE = 0
CLASSIFICATION_TYPE = U
NORAD_CAT_ID   = 27601
ELEMENT_SET_NO = 999
REV_AT_EPOCH   = 20396
BSTAR          = .20824E-3
MEAN_MOTION_DOT = .552E-5
MEAN_MOTION_DDOT = 0

CCSDS_OMM_VERS = 2.0
CREATION_DATE  = 
ORIGINATOR     = 

OBJECT_NAME    = CZ-4B R/B
OBJECT_ID      = 2003-049C
CENTER_NAME    = EARTH
REF_FRAME      = TEME
TIME_SYSTEM    = UTC
MEAN_ELEMENT_THEORY = SGP/SGP4

EPOCH          = 2025-12-28T19:49:23.795040
MEAN_MOTION    = 14.54925767
ECCENTRICITY   = .004938
INCLINATION    = 98.6801
RA_OF_ASC_NODE = 349.9985
ARG_OF_PERICENTER = 87.9863
MEAN_ANOMALY   = 272.6987

EPHEMERIS_TYPE = 0
CLASSIFICATION_TYPE = U
NORAD_CAT_ID   = 28059
ELEMENT_SET_NO = 999
REV_AT_EPOCH   = 17629
BSTAR          = .14677E-3
MEAN_MOTION_DOT = .59E-5
MEAN_MOTION_DDOT = 0

CCSDS_OMM_VERS = 2.0
CREATION_DATE  = 
ORIGINATOR     = 

OBJECT_NAME    = CZ-2C R/B
OBJECT_ID      = 2004-012C
CENTER_NAME    = EARTH
REF_FRAME      = TEME
TIME_SYSTEM    = UTC
MEAN_ELEMENT_THEORY = SGP/SGP4

EPOCH          = 2025-12-28T18:02:01.921632
MEAN_MOTION    = 15.56765530
ECCENTRICITY   = .0016697
INCLINATION    = 97.7397
RA_OF_ASC_NODE = 56.7072
ARG_OF_PERICENTER = 208.5130
MEAN_ANOMALY   = 151.5212

EPHEMERIS_TYPE = 0
CLASSIFICATION_TYPE = U
NORAD_CAT_ID   = 28222
ELEMENT_SET_NO = 999
REV_AT_EPOCH   = 19321
BSTAR          = .697E-3
MEAN_MOTION_DOT = .50298E-3
MEAN_MOTION_DDOT = 0

CCSDS_OMM_VERS = 2.0
CREATION_DATE  = 
ORIGINATOR     = 

OBJECT_NAME    = SL-16 R/B
OBJECT_ID      = 2004-021B
CENTER_NAME    = EARTH
REF_FRAME      = TEME
TIME_SYSTEM    = UTC
MEAN_ELEMENT_THEORY = SGP/SGP4

EPOCH          = 2025-12-28T19:33:28.415808
MEAN_MOTION    = 14.14581930
ECCENTRICITY   = .0004414
INCLINATION    = 71.0005
RA_OF_ASC_NODE = 21.2298
ARG_OF_PERICENTER = 172.6220
MEAN_ANOMALY   = 187.4968

EPHEMERIS_TYPE = 0
CLASSIFICATION_TYPE = U
NORAD_CAT_ID   = 28353
ELEMENT_SET_NO = 999
REV_AT_EPOCH   = 11281
BSTAR          = .18888E-3
MEAN_MOTION_DOT = .315E-5
MEAN_MOTION_DDOT = 0

CCSDS_OMM_VERS = 2.0
CREATION_DATE  = 
ORIGINATOR     = 

OBJECT_NAME    = CZ-4B R/B
OBJECT_ID      = 2004-035C
CENTER_NAME    = EARTH
REF_FRAME      = TEME
TIME_SYSTEM    = UTC
MEAN_ELEMENT_THEORY = SGP/SGP4

EPOCH          = 2025-12-28T19:22:52.576608
MEAN_MOTION    = 15.27644510
ECCENTRICITY   = .0032023
INCLINATION    = 97.3600
RA_OF_ASC_NODE = 32.9385
ARG_OF_PERICENTER = 217.7902
MEAN_ANOMALY   = 142.1089

EPHEMERIS_TYPE = 0
CLASSIFICATION_TYPE = U
NORAD_CAT_ID   = 28415
ELEMENT_SET_NO = 999
REV_AT_EPOCH   = 16908
BSTAR          = .38608E-3
MEAN_MOTION_DOT = .10519E-3
MEAN_MOTION_DDOT = 0

CCSDS_OMM_VERS = 2.0
CREATION_DATE  = 
ORIGINATOR     = 

OBJECT_NAME    = CZ-2C R/B
OBJECT_ID      = 2004-046B
CENTER_NAME    = EARTH
REF_FRAME      = TEME
TIME_SYSTEM    = UTC
MEAN_ELEMENT_THEORY = SGP/SGP4

EPOCH          = 2025-12-28T17:39:30.606624
MEAN_MOTION    = 14.26951217
ECCENTRICITY   = .0139676
INCLINATION    = 98.1997
RA_OF_ASC_NODE = 277.1204
ARG_OF_PERICENTER = 5.2134
MEAN_ANOMALY   = 355.0464

EPHEMERIS_TYPE = 0
CLASSIFICATION_TYPE = U
NORAD_CAT_ID   = 28480
ELEMENT_SET_NO = 999
REV_AT_EPOCH   = 9838
BSTAR          = .15644E-3
MEAN_MOTION_DOT = .38E-5
MEAN_MOTION_DDOT = 0

CCSDS_OMM_VERS = 2.0
CREATION_DATE  = 
ORIGINATOR     = 

OBJECT_NAME    = ARIANE 5 R/B
OBJECT_ID      = 2004-049H
CENTER_NAME    = EARTH
REF_FRAME      = TEME
TIME_SYSTEM    = UTC
MEAN_ELEMENT_THEORY = SGP/SGP4

EPOCH          = 2025-12-28T16:32:03.683328
MEAN_MOTION    = 14.85056590
ECCENTRICITY   = .0083659
INCLINATION    = 98.2532
RA_OF_ASC_NODE = 163.5434
ARG_OF_PERICENTER = 220.6187
MEAN_ANOMALY   = 138.8766

EPHEMERIS_TYPE = 0
CLASSIFICATION_TYPE = U
NORAD_CAT_ID   = 28499
ELEMENT_SET_NO = 999
REV_AT_EPOCH   = 13525
BSTAR          = .20062E-3
MEAN_MOTION_DOT = .1759E-4
MEAN_MOTION_DDOT = 0

CCSDS_OMM_VERS = 2.0
CREATION_DATE  = 
ORIGINATOR     = 

OBJECT_NAME    = CZ-2D R/B
OBJECT_ID      = 2005-024B
CENTER_NAME    = EARTH
REF_FRAME      = TEME
TIME_SYSTEM    = UTC
MEAN_ELEMENT_THEORY = SGP/SGP4

EPOCH          = 2025-12-28T18:13:22.721664
MEAN_MOTION    = 15.54167228
ECCENTRICITY   = .0003186
INCLINATION    = 97.3634
RA_OF_ASC_NODE = 10.6363
ARG_OF_PERICENTER = 293.0520
MEAN_ANOMALY   = 67.0397

EPHEMERIS_TYPE = 0
CLASSIFICATION_TYPE = U
NORAD_CAT_ID   = 28738
ELEMENT_SET_NO = 999
REV_AT_EPOCH   = 12874
BSTAR          = .62639E-3
MEAN_MOTION_DOT = .40793E-3
MEAN_MOTION_DDOT = 0

